{"type": "FeatureCollection", "features": [ {"type": "Feature", "properties": {"norad_id": 32260, "name": "GPS BIIRM-4 (PRN 15)", "group": "gnss", "lat": 49.816785798623876, "lon": 146.54867688560375, "alt_km": 19754.351209165234, "timestamp": "2025-12-27T19:21:58.995879+00:00", "meta": {"OBJECT_NAME": "GPS BIIRM-4 (PRN 15)", "OBJECT_ID": "2007-047A", "EPOCH": "2025-12-23T05:22:00.882048", "MEAN_MOTION": 2.00564099, "ECCENTRICITY": 0.01640403, "INCLINATION": 53.9621, "RA_OF_ASC_NODE": 87.3254, "ARG_OF_PERICENTER": 85.3777, "MEAN_ANOMALY": 276.5133, "EPHEMERIS_TYPE": 0, "CLASSIFICATION_TYPE": "U", "NORAD_CAT_ID": 32260, "ELEMENT_SET_NO": 999, "REV_AT_EPOCH": 13328, "BSTAR": 0, "MEAN_MOTION_DOT": -6e-08, "MEAN_MOTION_DDOT": 0}, "tle": {"line1": "1 32260U 07047A   25357.22362132 -.00000006  00000+0  00000+0 0  9999", "line2": "2 32260  53.9621  87.3254 0164040  85.3777 276.5133  2.00564099133281"}}, "geometry": {"type": "Point", "coordinates": [146.54867688560375, 49.816785798623876]}}, {"type": "Feature", "properties": {"norad_id": 32275, "name": "COSMOS 2433 (720)", "group": "gnss", "lat": 43.630011345875985, "lon": 116.15976251650753, "alt_km": 19132.474452283062, "timestamp": "2025-12-27T19:21:58.995890+00:00", "meta": {"OBJECT_NAME": "COSMOS 2433 (720)", "OBJECT_ID": "2007-052A", "EPOCH": "2025-12-26T05:29:12.755904", "MEAN_MOTION": 2.13104171, "ECCENTRICITY": 0.0005081, "INCLINATION": 65.6759, "RA_OF_ASC_NODE": 321.753, "ARG_OF_PERICENTER": 257.4758, "MEAN_ANOMALY": 102.4712, "EPHEMERIS_TYPE": 0, "CLASSIFICATION_TYPE": "U", "NORAD_CAT_ID": 32275, "ELEMENT_SET_NO": 999, "REV_AT_EPOCH": 14137, "BSTAR": 0, "MEAN_MOTION_DOT": -3.3e-07, "MEAN_MOTION_DDOT": 0}, "tle": {"line1": "1 32275U 07052A   25360.22861986 -.00000033  00000+0  00000+0 0  9996", "line2": "2 32275  65.6759 321.7530 0005081 257.4758 102.4712  2.13104171141375"}}, "geometry": {"type": "Point", "coordinates": [116.15976251650753, 43.630011345875985]}}, {"type": "Feature", "properties": {"norad_id": 32276, "name": "COSMOS 2432 (719)", "group": "gnss", "lat": 61.84033614577762, "lon": 19.364106627149816, "alt_km": 19137.66383904261, "timestamp": "2025-12-27T19:21:58.995902+00:00", "meta": {"OBJECT_NAME": "COSMOS 2432 (719)", "OBJECT_ID": "2007-052B", "EPOCH": "2025-12-27T06:49:58.250208", "MEAN_MOTION": 2.13103316, "ECCENTRICITY": 0.0011433, "INCLINATION": 65.6913, "RA_OF_ASC_NODE": 321.8424, "ARG_OF_PERICENTER": 315.4046, "MEAN_ANOMALY": 79.1571, "EPHEMERIS_TYPE": 0, "CLASSIFICATION_TYPE": "U", "NORAD_CAT_ID": 32276, "ELEMENT_SET_NO": 999, "REV_AT_EPOCH": 14142, "BSTAR": 0, "MEAN_MOTION_DOT": -3.6e-07, "MEAN_MOTION_DDOT": 0}, "tle": {"line1": "1 32276U 07052B   25361.28470197 -.00000036  00000+0  00000+0 0  9997", "line2": "2 32276  65.6913 321.8424 0011433 315.4046  79.1571  2.13103316141423"}}, "geometry": {"type": "Point", "coordinates": [19.364106627149816, 61.84033614577762]}}, {"type": "Feature", "properties": {"norad_id": 32384, "name": "GPS BIIRM-5 (PRN 29)", "group": "gnss", "lat": -16.72460993089843, "lon": 113.09485395539025, "alt_km": 20120.086755391007, "timestamp": "2025-12-27T19:21:58.995913+00:00", "meta": {"OBJECT_NAME": "GPS BIIRM-5 (PRN 29)", "OBJECT_ID": "2007-062A", "EPOCH": "2025-12-26T06:34:08.123232", "MEAN_MOTION": 2.00549336, "ECCENTRICITY": 0.0031409, "INCLINATION": 55.1705, "RA_OF_ASC_NODE": 281.103, "ARG_OF_PERICENTER": 162.2528, "MEAN_ANOMALY": 11.0381, "EPHEMERIS_TYPE": 0, "CLASSIFICATION_TYPE": "U", "NORAD_CAT_ID": 32384, "ELEMENT_SET_NO": 999, "REV_AT_EPOCH": 13204, "BSTAR": 0, "MEAN_MOTION_DOT": -2.8e-07, "MEAN_MOTION_DDOT": 0}, "tle": {"line1": "1 32384U 07062A   25360.27370513 -.00000028  00000+0  00000+0 0  9998", "line2": "2 32384  55.1705 281.1030 0031409 162.2528  11.0381  2.00549336132049"}}, "geometry": {"type": "Point", "coordinates": [113.09485395539025, -16.72460993089843]}}, {"type": "Feature", "properties": {"norad_id": 32393, "name": "COSMOS 2434 (721)", "group": "gnss", "lat": 19.0633394338099, "lon": -152.7263956263537, "alt_km": 19120.207590078324, "timestamp": "2025-12-27T19:21:58.995925+00:00", "meta": {"OBJECT_NAME": "COSMOS 2434 (721)", "OBJECT_ID": "2007-065A", "EPOCH": "2025-12-27T02:08:22.083936", "MEAN_MOTION": 2.13101378, "ECCENTRICITY": 0.0004806, "INCLINATION": 64.316, "RA_OF_ASC_NODE": 197.7187, "ARG_OF_PERICENTER": 72.1868, "MEAN_ANOMALY": 118.5002, "EPHEMERIS_TYPE": 0, "CLASSIFICATION_TYPE": "U", "NORAD_CAT_ID": 32393, "ELEMENT_SET_NO": 999, "REV_AT_EPOCH": 14010, "BSTAR": 0, "MEAN_MOTION_DOT": 1.2e-06, "MEAN_MOTION_DDOT": 0}, "tle": {"line1": "1 32393U 07065A   25361.08914449  .00000120  00000+0  00000+0 0  9995", "line2": "2 32393  64.3160 197.7187 0004806  72.1868 118.5002  2.13101378140101"}}, "geometry": {"type": "Point", "coordinates": [-152.7263956263537, 19.0633394338099]}}, {"type": "Feature", "properties": {"norad_id": 32395, "name": "COSMOS 2436 (723)", "group": "gnss", "lat": 22.840890684408077, "lon": 6.074190598267542, "alt_km": 19164.340499937447, "timestamp": "2025-12-27T19:21:58.995936+00:00", "meta": {"OBJECT_NAME": "COSMOS 2436 (723)", "OBJECT_ID": "2007-065C", "EPOCH": "2025-12-26T09:51:08.082144", "MEAN_MOTION": 2.13100172, "ECCENTRICITY": 0.0017813, "INCLINATION": 64.3246, "RA_OF_ASC_NODE": 197.8121, "ARG_OF_PERICENTER": 10.2944, "MEAN_ANOMALY": 152.7871, "EPHEMERIS_TYPE": 0, "CLASSIFICATION_TYPE": "U", "NORAD_CAT_ID": 32395, "ELEMENT_SET_NO": 999, "REV_AT_EPOCH": 14004, "BSTAR": 0, "MEAN_MOTION_DOT": 1.14e-06, "MEAN_MOTION_DDOT": 0}, "tle": {"line1": "1 32395U 07065C   25360.41051021  .00000114  00000+0  00000+0 0  9994", "line2": "2 32395  64.3246 197.8121 0017813  10.2944 152.7871  2.13100172140045"}}, "geometry": {"type": "Point", "coordinates": [6.074190598267542, 22.840890684408077]}}, {"type": "Feature", "properties": {"norad_id": 32711, "name": "GPS BIIRM-6 (PRN 07)", "group": "gnss", "lat": 43.01851797587275, "lon": -65.0372281327509, "alt_km": 20455.664565972755, "timestamp": "2025-12-27T19:21:58.995946+00:00", "meta": {"OBJECT_NAME": "GPS BIIRM-6 (PRN 07)", "OBJECT_ID": "2008-012A", "EPOCH": "2025-12-26T15:12:37.851552", "MEAN_MOTION": 2.00566161, "ECCENTRICITY": 0.02030689, "INCLINATION": 54.4786, "RA_OF_ASC_NODE": 156.8183, "ARG_OF_PERICENTER": 245.1136, "MEAN_ANOMALY": 112.7544, "EPHEMERIS_TYPE": 0, "CLASSIFICATION_TYPE": "U", "NORAD_CAT_ID": 32711, "ELEMENT_SET_NO": 999, "REV_AT_EPOCH": 13029, "BSTAR": 0, "MEAN_MOTION_DOT": 1.07e-06, "MEAN_MOTION_DDOT": 0}, "tle": {"line1": "1 32711U 08012A   25360.63377143  .00000107  00000+0  00000+0 0  9991", "line2": "2 32711  54.4786 156.8183 0203068 245.1136 112.7544  2.00566161130299"}}, "geometry": {"type": "Point", "coordinates": [-65.0372281327509, 43.01851797587275]}}, {"type": "Feature", "properties": {"norad_id": 35752, "name": "GPS BIIRM-8 (PRN 05)", "group": "gnss", "lat": 28.180816344271296, "lon": -166.9022644996366, "alt_km": 20117.197244100236, "timestamp": "2025-12-27T19:21:58.995959+00:00", "meta": {"OBJECT_NAME": "GPS BIIRM-8 (PRN 05)", "OBJECT_ID": "2009-043A", "EPOCH": "2025-12-26T02:26:22.079616", "MEAN_MOTION": 2.00564782, "ECCENTRICITY": 0.00515557, "INCLINATION": 56.1002, "RA_OF_ASC_NODE": 34.2563, "ARG_OF_PERICENTER": 81.6915, "MEAN_ANOMALY": 271.8027, "EPHEMERIS_TYPE": 0, "CLASSIFICATION_TYPE": "U", "NORAD_CAT_ID": 35752, "ELEMENT_SET_NO": 999, "REV_AT_EPOCH": 11988, "BSTAR": 0, "MEAN_MOTION_DOT": -5.1e-07, "MEAN_MOTION_DDOT": 0}, "tle": {"line1": "1 35752U 09043A   25360.10164444 -.00000051  00000+0  00000+0 0  9993", "line2": "2 35752  56.1002  34.2563 0051555  81.6915 271.8027  2.00564782119880"}}, "geometry": {"type": "Point", "coordinates": [-166.9022644996366, 28.180816344271296]}}, {"type": "Feature", "properties": {"norad_id": 36111, "name": "COSMOS 2456 (730)", "group": "gnss", "lat": 1.3647138433547639, "lon": -103.80447056501538, "alt_km": 19134.344360992993, "timestamp": "2025-12-27T19:21:58.995970+00:00", "meta": {"OBJECT_NAME": "COSMOS 2456 (730)", "OBJECT_ID": "2009-070A", "EPOCH": "2025-12-27T04:41:41.219808", "MEAN_MOTION": 2.13103691, "ECCENTRICITY": 0.00037027, "INCLINATION": 64.9075, "RA_OF_ASC_NODE": 76.844, "ARG_OF_PERICENTER": 295.0065, "MEAN_ANOMALY": 134.5252, "EPHEMERIS_TYPE": 0, "CLASSIFICATION_TYPE": "U", "NORAD_CAT_ID": 36111, "ELEMENT_SET_NO": 999, "REV_AT_EPOCH": 12476, "BSTAR": 0, "MEAN_MOTION_DOT": -1.5e-07, "MEAN_MOTION_DDOT": 0}, "tle": {"line1": "1 36111U 09070A   25361.19561597 -.00000015  00000+0  00000+0 0  9993", "line2": "2 36111  64.9075  76.8440 0003702 295.0065 134.5252  2.13103691124761"}}, "geometry": {"type": "Point", "coordinates": [-103.80447056501538, 1.3647138433547639]}}, {"type": "Feature", "properties": {"norad_id": 36112, "name": "COSMOS 2457 (733)", "group": "gnss", "lat": -45.92013103453562, "lon": 47.7662785913184, "alt_km": 19144.30742628171, "timestamp": "2025-12-27T19:21:58.995981+00:00", "meta": {"OBJECT_NAME": "COSMOS 2457 (733)", "OBJECT_ID": "2009-070B", "EPOCH": "2025-12-27T08:55:10.742304", "MEAN_MOTION": 2.13101028, "ECCENTRICITY": 0.0004359, "INCLINATION": 64.8931, "RA_OF_ASC_NODE": 76.6852, "ARG_OF_PERICENTER": 164.6643, "MEAN_ANOMALY": 168.9221, "EPHEMERIS_TYPE": 0, "CLASSIFICATION_TYPE": "U", "NORAD_CAT_ID": 36112, "ELEMENT_SET_NO": 999, "REV_AT_EPOCH": 12476, "BSTAR": 0, "MEAN_MOTION_DOT": -1.6e-07, "MEAN_MOTION_DDOT": 0}, "tle": {"line1": "1 36112U 09070B   25361.37165211 -.00000016  00000+0  00000+0 0  9998", "line2": "2 36112  64.8931  76.6852 0004359 164.6643 168.9221  2.13101028124768"}}, "geometry": {"type": "Point", "coordinates": [47.7662785913184, -45.92013103453562]}}]}